#dP2020 11  1  0  0  0.00000000      96 __u+U ITR00 FIT  IAC
## 2130      0.00000000   900.00000000 59154 0.0000000000000
+  118   C01C02C03C04C05C06C07C08C09C10C11C12C13C14C16C19C20
+        C21C22C23C24C25C26C27C28C29C30C32C33C34C35C36C37C38
+        C39C40C44E01E02E03E04E05E07E08E09E11E12E13E14E15E18
+        E19E21E24E25E26E27E30E31E33E36G01G02G03G04G05G06G07
+        G08G09G10G11G12G13G15G16G17G18G19G20G21G22G23G24G25
+        G26G27G28G29G30G31G32J01J02J03J07R01R02R03R04R05R07
+        R08R09R11R12R13R14R15R16R17R18R19R20R21R22R23R24  0
++        13 13 13 13 13  8  8  8  8  8  8  8  8  8  8  8  8
++         8  8  8  8  8  8  8  8  7  8  8  8  8  8  8  8  0
++        10  9  0  5  6  5  5  5  5  6  4  4  4  5  4  5  5
++         5  5  4  5  5  5  6  4  5  4  4  4  4  3  4  3  4
++         4  3  4  4  4  4  4  4  4  3  4  4  4  4  4  4  3
++         3  3  4  3  4  3  3  9  8  8 13  6  6  6  6  6  6
++         6  6  6  6  7  6  6  6  5  5  6  6  6  7  6  6  0
%c M  cc GPS ccc cccc cccc cccc cccc ccccc ccccc ccccc ccccc
%c cc cc ccc ccc cccc cccc cccc cccc ccccc ccccc ccccc ccccc
%f  0.0000000  0.000000000  0.00000000000  0.000000000000000
%f  0.0000000  0.000000000  0.00000000000  0.000000000000000
%i    0    0    0    0      0      0      0      0         0
%i    0    0    0    0      0      0      0      0         0
/* INFORMATION & ANALYSIS CENTER (IAC)            RAPID DATA
/* S/V CLOCKS ARE ALIGNED TO GNSS TIME                      
/* G:C1WC2W R:C1PC2P E:C1XC5X C:C2IC6I J:C1CC2S             
/* PCV:IGS14_2118 OL/AL:FES2004  NONE     YN ORB:CoN CLK:CoN
*  2020 11 01  3 45  0.00000000
PC01 -34331.306767  24417.355422   -444.221264   -767.591986
PC02   4419.761794  41946.760331   1023.687766    771.579139
PC03 -14877.068808  39470.134054    825.035184     77.536486
PC04 -39619.165065  14350.139690   -325.277045    102.141851
PC05  21928.201902  36002.406144   1277.699562   -249.910338
PC06 -11129.166315  35891.207628  19983.253064     81.865698
PC07 -15991.580739  21760.056007 -32197.092040   -150.729904
PC08 -25024.749275  30068.252133  15321.938526   -656.908396
PC09  -1623.422974  42053.810504   5289.042770    908.927352
PC10    745.910189  27270.074300 -31855.384379   -151.545831
PC11 -13606.245543  16313.518330 -18000.503292   -722.252600
PC12 -14912.443187  -4132.803032 -23186.210218    585.619987
PC13 -12396.899946  30817.977555  25870.625450    722.787124
PC14 -17196.768530   6077.089596  21151.770497    450.395186
PC16  -8418.750103  37503.426845  17632.435686   -603.129786
PC19   8624.032304 -13371.251085 -22910.321355    602.215654
PC20  22217.437977   1119.302635 -16827.330899   -876.070369
PC21 -23123.029314 -15635.113460    419.084528   -710.684333
PC22 -10313.587898 -20534.254133 -15858.381366   -782.792251
PC23    241.511857  17146.143567 -22004.197464   -914.339533
PC24 -26230.438549   7289.402585   6065.576985   -720.622212
PC25 -17684.165633  18043.713829 -11828.452888   -811.184326
PC26 -19233.380674  -5876.773954  19329.728485    888.051865
PC27  12458.616230  14744.626806  20142.680244    425.271840
PC28   1667.174940  27102.778823   6410.963529   -151.371378
PC29   9177.339209 -23937.867342  11024.467674    305.131067
PC30  15757.319408  -6335.673636  22140.040687    397.610308
PC32  23211.656287  15481.048124   -373.130118   -894.355713
PC33  -8689.253094  13368.243539  22898.551415   -824.752824
PC34 -15755.908869   7001.448982 -21949.684759   -819.127930
PC35  -2452.144585 -27091.586348  -6164.449274   -580.938838
PC36  18316.433202 -17573.080454  11627.517802   -854.199852
PC37  18558.135423   6821.698631 -19676.849205   -884.910663
PC38      0.000000      0.000000      0.000000 999999.999999
PC39  -3097.302025  39633.103048  14221.412976     24.599817
PC40  -3811.141612  22529.239272 -35389.033213     96.532794
PC44      0.000000      0.000000      0.000000 999999.999999
PE01  29510.897071   -878.647916   2166.069123   -973.331028
PE02 -29491.818102    936.351489  -2250.466216    173.130000
PE03 -19541.059563  -3023.869558  22022.592116   -360.051528
PE04   9054.071388 -16783.091705 -22641.641423   -638.712207
PE05 -18704.730969 -21316.338746   8480.546702   -333.141661
PE07   6961.564984  27010.101844   9890.789751   -456.061606
PE08  -8636.678162  16989.850093  22638.423076   6098.265823
PE09  -7274.421758 -26969.629667  -9820.104448   5880.037445
PE11   4288.572173 -25631.274389 -14172.676017   6659.458268
PE12  17442.934162 -23420.676491   4821.138454   5528.436062
PE13  -4478.525730  25721.785907  13946.564298    405.520541
PE14  15154.335496   1122.704772  17739.528313  -1210.001014
PE15 -17273.971638  23568.709568  -4687.897207    845.838676
PE18 -21069.556544  -1200.557588 -24836.113827  -1321.764586
PE19  19984.103905   5467.643291 -21144.239665    117.232322
PE21  22876.237677  10720.382543 -15419.997483   -629.590422
PE24  -2052.571977 -16526.211734  24467.148088   -559.423567
PE25 -22743.801315 -10815.606112  15565.639109   -519.350571
PE26  11424.417800  12333.821919  24366.135498   2547.603149
PE27   2741.005869  16442.039592 -24449.506754    102.001336
PE30 -19494.327271  12149.372539 -18661.341789   3459.942732
PE31  18888.853574 -12484.136290  19082.274997   -475.330422
PE33  19911.725095  -7555.104720  20566.183782   -463.086575
PE36 -10923.245419 -12772.926224 -24361.155984    486.929499
PG01  12800.254790 -21368.269041  -8964.620214    811.566643
PG02 -20409.782680  13016.638546 -10255.480098   -536.900856
PG03   4934.879382 -14330.908363 -21890.471923   -341.578566
PG04   2211.614283 -23953.641846 -11207.483163   -150.978994
PG05 -23333.287840   3705.788141  12165.464880    -24.786595
PG06 -16960.639198  -2039.389553 -20291.758000   -336.467066
PG07  -2299.350877 -17682.863620  19856.533593   -405.180915
PG08   8242.349415 -17012.920899  18556.756780    -53.479721
PG09  -7506.341442 -25467.100856    -97.768011   -307.773724
PG10  22331.710138  11828.299767   8683.783308   -493.752181
PG11  11441.218723 -23494.994595   5247.053634   -121.133630
PG12  -8312.384678  12862.404002 -21919.288435     46.420081
PG13 -13577.010023   8067.108793  21204.760373     60.375266
PG15  -6484.005518  18585.706035  17315.575848   -193.075819
PG16  23095.601955  -1316.878386  13226.612829   -230.234455
PG17 -14125.382888 -15654.771210 -15736.570028    347.771913
PG18   2909.558245  16807.955229  20335.365301    315.338464
PG19 -15172.654115  -9188.575016 -20077.358062    -84.258287
PG20  13210.512280  14686.111328  17797.230217    526.195878
PG21  19306.477625 -17531.490144   4759.209176     63.659045
PG22  13408.448233 -12248.710332 -19136.294244   -736.067998
PG23  14118.191598  15135.944349  16625.955402     94.382694
PG24 -13980.492656  21841.662757  -4901.251623      7.047662
PG25   5851.542334  16215.256073 -20516.063730     14.574239
PG26  26255.148954   4605.060571   1414.098890    304.545316
PG27  14007.428492  -4769.011483  21901.743215     -3.666208
PG28 -21726.428550 -13332.749500   7719.696289    660.956112
PG29   3830.718655  26163.436978  -2256.390868   -227.308132
PG30 -11240.857053 -11005.740232  21451.004212   -327.677908
PG31  18869.905379    249.429474 -18929.023365    -78.588544
PG32  15599.229631  15047.941476 -15369.612236    363.282179
PJ01 -26524.839815  21164.189375  30021.436446   -337.871345
PJ02 -33521.127887  17723.833856 -13848.865803     -6.050946
PJ03 -20919.703002  29667.365149 -16829.570066     -2.573203
PJ07 -25389.151592  33650.962543      1.016475      0.014358
PR01 -13593.829215 -19518.462235  -9236.352235     69.925181
PR02 -19245.240151 -11576.685108  12067.457055    452.440292
PR03 -11901.640118   3109.967625  22371.183473     24.772700
PR04   2220.376493  15679.514684  20018.037522     59.974551
PR05  15001.526075  19631.620597   6397.182131     60.287036
PR07  11541.200002  -3517.477487 -22451.987308    -41.102812
PR08  -2158.813800 -15732.801177 -19909.381133    -55.477960
PR09  22849.636790   -447.436079 -11237.947490      5.345013
PR11   8818.386370 -12603.093650  20353.629587    -43.112568
PR12  -9132.366032  -8529.816029  22265.835929    176.477632
PR13 -22714.885756    516.941517  11585.315189    -45.979639
PR14 -22986.868557   9151.286302  -6218.598767     57.232544
PR15  -9888.488319  12401.579512 -19950.741387    106.912553
PR16  10285.818970   8111.239612 -21927.189368     -7.759950
PR17 -12113.999507  14798.492193 -16842.017425    370.406733
PR18  -7623.086567  24323.841539  -1430.437106     54.655133
PR19     40.617913  21152.312931  14248.722534   -117.812051
PR20   9575.674711   4057.457010  23301.946224   -425.509658
PR21  12012.752581 -15755.735369  16090.989351   -163.015051
PR22   7212.663597 -24418.892977    222.660902    -79.832148
PR23  -4399.283590 -15962.476057 -19412.897011    342.002162
PR24 -10304.646263  -3308.828143 -23079.311435     18.919492
EOF
